GLOBALSTAR M067         
1 32263U 07048A   24119.52889417 -.00000046  00000+0  37951-3 0  9994
2 32263  51.9709 169.2293 0001104 173.0175 334.4853 12.40643453758014
GLOBALSTAR M070         
1 32264U 07048B   24119.53129396 -.00000063  00000+0  22729-3 0  9995
2 32264  51.9754 311.6859 0000518 102.4891 275.8495 12.62291130761306
GLOBALSTAR M066         
1 32265U 07048C   24119.41110977 -.00000054  00000+0  27604-3 0  9995
2 32265  51.9660 174.0374 0000516 156.9406 215.8547 12.62261404763552
GLOBALSTAR M068         
1 32266U 07048D   24119.42339390 -.00000060  00000+0  24240-3 0  9999
2 32266  51.9861 126.5555 0000824 313.0187 194.6257 12.62786658765156
GLOBALSTAR M079         
1 37188U 10054A   24119.56006314 -.00000084  00000+0  11298-3 0  9995
2 37188  52.0047 321.9783 0001057  98.4382 279.9487 12.62269036624091
GLOBALSTAR M074         
1 37189U 10054B   24119.50619748 -.00000081  00000+0  12582-3 0  9995
2 37189  52.0027 321.5300 0000788  94.4671 278.3498 12.62267822624690
GLOBALSTAR M076         
1 37190U 10054C   24119.32974757 -.00000060  00000+0  24271-3 0  9996
2 37190  52.0039 322.1988 0001019 124.6063  47.1699 12.62277667624382
GLOBALSTAR M077         
1 37191U 10054D   24119.61293341 -.00000078  00000+0  14657-3 0  9998
2 37191  52.0069 278.0742 0000694 117.0798 320.9961 12.62272194624791
